COSMOS 2503             
1 40420U 15009A   26068.69626972  .00002817  00000+0  19590-3 0  9998
2 40420  97.8437 123.7175 0015321 225.7450 134.2520 15.06275973603958
STARLINK-5639           
1 55365U 23013AL  26068.04976417 -.00000712  00000+0 -37624-4 0  9990
2 55365  43.0030 316.7586 0001027 271.3719  88.7006 15.02536291171464
